{
  "regions": [
    {
      "id": 2,
      "name": "東北地方"
    },
    {
      "id": 4,
      "name": "中部地方"
    },
    {
      "id": 5,
      "name": "近畿地方"
    },
    {
      "id": 6,
      "name": "中国地方"
    },
    {
      "id": 7,
      "name": "四国地方"
    },
    {
      "id": 8,
      "name": "九州・沖縄地方"
    }
  ],
  "prefectures": [
    {
      "id": 1,
      "name": "北海道",
      "capital": {
        "zip_code": "060-8588",
        "address": "札幌市中央区北3条西6-1",
        "name": "札幌市"
      },
      "region_id": 1,
      "area": 83456.2
    },
    {
      "id": 2,
      "name": "青森県",
      "capital": {
        "zip_code": "030-8570",
        "address": "青森市長島1-1-1",
        "name": "青森市",
        "city_type": 1
      },
      "region_id": 2,
      "area": 9607.04,
      "flowers": [
        "林檎（りんご）"
      ],
      "trees": [
        "ヒバ"
      ]
    },
    {
      "id": 3,
      "name": "岩手県",
      "capital": {
        "zip_code": "020-8570",
        "address": "盛岡市内丸10-1",
        "name": "盛岡市",
        "city_type": 1
      },
      "region_id": 2,
      "area": 15278.77,
      "flowers": [
        "桐（きり）"
      ],
      "trees": [
        "ナンブアカマツ"
      ]
    },
    {
      "id": 4,
      "name": "宮城県",
      "capital": {
        "zip_code": "980-8570",
        "address": "仙台市青葉区本町3-8-1",
        "name": "仙台市",
        "city_type": 3
      },
      "region_id": 2,
      "area": 7285.73,
      "flowers": [
        "萩（はぎ）"
      ],
      "trees": [
        "ケヤキ"
      ]
    },
    {
      "id": 5,
      "name": "秋田県",
      "capital": {
        "zip_code": "010-8570",
        "address": "秋田市山王4-1-1",
        "name": "秋田市",
        "city_type": 1
      },
      "region_id": 2,
      "area": 11612.22,
      "flowers": [
        "蕗の薹（ふきのとう）"
      ],
      "trees": [
        "秋田スギ"
      ]
    },
    {
      "id": 6,
      "name": "山形県",
      "capital": {
        "zip_code": "990-8570",
        "address": "山形市松波2-8-1",
        "name": "山形市",
        "city_type": 1
      },
      "region_id": 2,
      "area": 9323.44,
      "flowers": [
        "紅花（べにばな）"
      ],
      "trees": [
        "さくらんぼ"
      ]
    },
    {
      "id": 7,
      "name": "福島県",
      "capital": {
        "zip_code": "960-8670",
        "address": "福島市杉妻町2-16",
        "name": "福島市",
        "city_type": 1
      },
      "region_id": 2,
      "area": 13782.75,
      "flowers": [
        "石楠花（しゃくなげ）"
      ],
      "trees": [
        "ケヤキ"
      ]
    },
    {
      "id": 8,
      "name": "茨城県",
      "capital": {
        "zip_code": "310-8555",
        "address": "水戸市笠原町978-6",
        "name": "水戸市",
        "city_type": 1
      },
      "region_id": 3,
      "area": 6095.69,
      "flowers": [
        "薔薇（ばら）"
      ],
      "trees": [
        "ウメ"
      ]
    },
    {
      "id": 9,
      "name": "栃木県",
      "capital": {
        "zip_code": "320-8501",
        "address": "宇都宮市塙田1-1-20",
        "name": "宇都宮市",
        "city_type": 1
      },
      "region_id": 3,
      "area": 6408.28,
      "flowers": [
        "やしおつつじ"
      ],
      "trees": [
        "トチノキ"
      ]
    },
    {
      "id": 10,
      "name": "群馬県",
      "capital": {
        "zip_code": "371-8570",
        "address": "前橋市大手町1-1-1",
        "name": "前橋市",
        "city_type": 1
      },
      "region_id": 3,
      "area": 6363.16,
      "flowers": [
        "れんげつつじ"
      ],
      "trees": [
        "クロマツ"
      ]
    },
    {
      "id": 11,
      "name": "埼玉県",
      "capital": {
        "zip_code": "330-9301",
        "address": "さいたま市浦和区高砂3-15-1",
        "name": "さいたま市",
        "city_type": 3
      },
      "region_id": 3,
      "area": 3797.25,
      "flowers": [
        "桜草（さくらそう）"
      ],
      "trees": [
        "ケヤキ"
      ]
    },
    {
      "id": 12,
      "name": "千葉県",
      "capital": {
        "zip_code": "260-8667",
        "address": "千葉市中央区市場町1-1",
        "name": "千葉市",
        "city_type": 3
      },
      "region_id": 3,
      "area": 5156.58,
      "flowers": [
        "菜の花（なのはな）"
      ],
      "trees": [
        "マキ"
      ]
    },
    {
      "id": 13,
      "name": "東京都",
      "capital": {
        "zip_code": "163-8001",
        "address": "新宿区西新宿2-8-1",
        "name": "新宿区",
        "city_type": 4
      },
      "region_id": 3,
      "area": 2187.42,
      "flowers": [
        "ソメイヨシノ"
      ],
      "trees": [
        "イチョウ"
      ]
    },
    {
      "id": 14,
      "name": "神奈川県",
      "capital": {
        "zip_code": "231-8588",
        "address": "横浜市中区日本大通1",
        "name": "横浜市",
        "city_type": 3
      },
      "region_id": 3,
      "area": 2415.84,
      "flowers": [
        "山百合（やまゆり）"
      ],
      "trees": [
        "イチョウ"
      ]
    },
    {
      "id": 15,
      "name": "新潟県",
      "capital": {
        "zip_code": "950-8570",
        "address": "新潟市中央区新光町4-1",
        "name": "新潟市",
        "city_type": 3
      },
      "region_id": 4,
      "area": 12583.46,
      "flowers": [
        "チューリップ",
        "雪割草（ゆきわりそう）"
      ],
      "trees": [
        "ユキツバキ"
      ]
    },
    {
      "id": 16,
      "name": "富山県",
      "capital": {
        "zip_code": "930-8501",
        "address": "富山市新総曲輪1-7",
        "name": "富山市",
        "city_type": 1
      },
      "region_id": 4,
      "area": 4247.4,
      "flowers": [
        "チューリップ"
      ],
      "trees": [
        "立山杉"
      ]
    },
    {
      "id": 17,
      "name": "石川県",
      "capital": {
        "zip_code": "920-8580",
        "address": "金沢市鞍月1-1",
        "name": "金沢市",
        "city_type": 1
      },
      "region_id": 4,
      "area": 4185.47,
      "flowers": [
        "黒百合（くろゆり）"
      ],
      "trees": [
        "あて"
      ]
    },
    {
      "id": 18,
      "name": "福井県",
      "capital": {
        "zip_code": "910-8580",
        "address": "福井市大手3-17-1",
        "name": "福井市",
        "city_type": 1
      },
      "region_id": 4,
      "area": 4189.27,
      "flowers": [
        "水仙（すいせん）"
      ],
      "trees": [
        "マツ"
      ]
    },
    {
      "id": 19,
      "name": "山梨県",
      "capital": {
        "zip_code": "400-8501",
        "address": "甲府市丸の内1-6-1",
        "name": "甲府市",
        "city_type": 1
      },
      "region_id": 4,
      "area": 4465.37,
      "flowers": [
        "桜（さくら）"
      ],
      "trees": [
        "かえで"
      ]
    },
    {
      "id": 20,
      "name": "長野県",
      "capital": {
        "zip_code": "380-8570",
        "address": "長野市大字南長野字幅下692-2",
        "name": "長野市",
        "city_type": 1
      },
      "region_id": 4,
      "area": 13562.23,
      "flowers": [
        "竜胆（りんどう）"
      ],
      "trees": [
        "しらかば"
      ]
    },
    {
      "id": 21,
      "name": "岐阜県",
      "capital": {
        "zip_code": "500-8570",
        "address": "岐阜市藪田南2-1-1",
        "name": "岐阜市",
        "city_type": 1
      },
      "region_id": 4,
      "area": 10621.17,
      "flowers": [
        "蓮華草（れんげそう）"
      ],
      "trees": [
        "イチイ"
      ]
    },
    {
      "id": 22,
      "name": "静岡県",
      "capital": {
        "zip_code": "420-8601",
        "address": "静岡市葵区追手町9-6",
        "name": "静岡市",
        "city_type": 3
      },
      "region_id": 4,
      "area": 7780.09,
      "flowers": [
        "躑躅（つつじ）"
      ],
      "trees": [
        "もくせい"
      ]
    },
    {
      "id": 23,
      "name": "愛知県",
      "capital": {
        "zip_code": "460-8501",
        "address": "名古屋市中区三の丸3-1-2",
        "name": "名古屋市",
        "city_type": 3
      },
      "region_id": 4,
      "area": 5164.06,
      "flowers": [
        "杜若（かきつばた）"
      ],
      "trees": [
        "ハナノキ"
      ]
    },
    {
      "id": 24,
      "name": "三重県",
      "capital": {
        "zip_code": "514-8570",
        "address": "津市広明町13",
        "name": "津市",
        "city_type": 0
      },
      "region_id": 5,
      "area": 5776.87,
      "flowers": [
        "花菖蒲（はなしょうぶ）"
      ],
      "trees": [
        "神宮スギ"
      ]
    },
    {
      "id": 25,
      "name": "滋賀県",
      "capital": {
        "zip_code": "滋賀県",
        "address": "大津市京町4-1-1",
        "name": "大津市",
        "city_type": 1
      },
      "region_id": 5,
      "area": 4017.36,
      "flowers": [
        "石楠花（しゃくなげ）"
      ],
      "trees": [
        "紅葉"
      ]
    },
    {
      "id": 26,
      "name": "京都府",
      "capital": {
        "zip_code": "602-8570",
        "address": "京都市上京区下立売通新町西入薮ノ内町",
        "name": "京都市",
        "city_type": 3
      },
      "region_id": 5,
      "area": 4613,
      "flowers": [
        "枝垂桜（しだれざくら）",
        "嵯峨ぎく（さがぎく）",
        "なでしこ"
      ],
      "trees": [
        "北山杉"
      ]
    },
    {
      "id": 27,
      "name": "大阪府",
      "capital": {
        "zip_code": "540-8570",
        "address": "大阪市中央区大手前2-1-22",
        "name": "大阪市",
        "city_type": 3
      },
      "region_id": 5,
      "area": 1896.83,
      "flowers": [
        "桜草（さくらそう）",
        "梅（うめ）"
      ],
      "trees": [
        "いちょう"
      ]
    },
    {
      "id": 28,
      "name": "兵庫県",
      "capital": {
        "zip_code": "650-8567",
        "address": "神戸市中央区下山手通5-10-1",
        "name": "神戸市",
        "city_type": 3
      },
      "region_id": 5,
      "area": 8395.47,
      "flowers": [
        "野路菊（のじぎく）"
      ],
      "trees": [
        "クスノキ"
      ]
    },
    {
      "id": 29,
      "name": "奈良県",
      "capital": {
        "zip_code": "630-8501",
        "address": "奈良市登大路町30",
        "name": "奈良市",
        "city_type": 1
      },
      "region_id": 5,
      "area": 3691.09,
      "flowers": [
        "奈良八重桜（ならやえざくら）"
      ],
      "trees": [
        "すぎ"
      ]
    },
    {
      "id": 30,
      "name": "和歌山県",
      "capital": {
        "zip_code": "640-8585",
        "address": "和歌山市小松原通1-1",
        "name": "和歌山市",
        "city_type": 1
      },
      "region_id": 5,
      "area": 4726.12,
      "flowers": [
        "梅（うめ）"
      ],
      "trees": [
        "ウバメガシ"
      ]
    },
    {
      "id": 31,
      "name": "鳥取県",
      "capital": {
        "zip_code": "680-8570",
        "address": "鳥取市東町1-220",
        "name": "鳥取市",
        "city_type": 1
      },
      "region_id": 6,
      "area": 3507.26,
      "flowers": [
        "二十世紀梨（にじゅっせいきなし）"
      ],
      "trees": [
        "ダイセンキャラボク"
      ]
    },
    {
      "id": 32,
      "name": "島根県",
      "capital": {
        "zip_code": "690-8501",
        "address": "松江市殿町1",
        "name": "松江市",
        "city_type": 1
      },
      "region_id": 6,
      "area": 6707.57,
      "flowers": [
        "牡丹（ぼたん）"
      ],
      "trees": [
        "クロマツ"
      ]
    },
    {
      "id": 33,
      "name": "岡山県",
      "capital": {
        "zip_code": "700-8570",
        "address": "岡山市北区内山下2-4-6",
        "name": "岡山市",
        "city_type": 3
      },
      "region_id": 6,
      "area": 7113,
      "flowers": [
        "桃（もも）"
      ],
      "trees": [
        "あかまつ"
      ]
    },
    {
      "id": 34,
      "name": "広島県",
      "capital": {
        "zip_code": "730-8511",
        "address": "広島市中区基町10-52",
        "name": "広島市",
        "city_type": 3
      },
      "region_id": 6,
      "area": 8478.52,
      "flowers": [
        "紅葉（もみじ）"
      ],
      "trees": [
        "もみじ"
      ]
    },
    {
      "id": 35,
      "name": "山口県",
      "capital": {
        "zip_code": "753-8501",
        "address": "山口市滝町1-1",
        "name": "山口市",
        "city_type": 0
      },
      "region_id": 6,
      "area": 6112.22,
      "flowers": [
        "夏蜜柑（なつみかん）"
      ],
      "trees": [
        "アカマツ"
      ]
    },
    {
      "id": 36,
      "name": "徳島県",
      "capital": {
        "zip_code": "770-8570",
        "address": "徳島市万代町1-1",
        "name": "徳島市",
        "city_type": 0
      },
      "region_id": 7,
      "area": 4145.69,
      "flowers": [
        "酢橘（すだち）"
      ],
      "trees": [
        "やまもも"
      ]
    },
    {
      "id": 37,
      "name": "香川県",
      "capital": {
        "zip_code": "760-8570",
        "address": "高松市番町4-1-10",
        "name": "高松市",
        "city_type": 1
      },
      "region_id": 7,
      "area": 1876.47,
      "flowers": [
        "オリーブ"
      ],
      "trees": [
        "オリーブ"
      ]
    },
    {
      "id": 38,
      "name": "愛媛県",
      "capital": {
        "zip_code": "790-8570",
        "address": "松山市一番町4-4-2",
        "name": "松山市",
        "city_type": 1
      },
      "region_id": 7,
      "area": 5677.38,
      "flowers": [
        "蜜柑（みかん）"
      ],
      "trees": [
        "まつ"
      ]
    },
    {
      "id": 39,
      "name": "高知県",
      "capital": {
        "zip_code": "780-8570",
        "address": "高知市丸ノ内1-2-20",
        "name": "高知市",
        "city_type": 1
      },
      "region_id": 7,
      "area": 7105.01,
      "flowers": [
        "山桃（やまもも）"
      ],
      "trees": [
        "ヤナセスギ"
      ]
    },
    {
      "id": 40,
      "name": "福岡県",
      "capital": {
        "zip_code": "812-8577",
        "address": "福岡市博多区東公園7-7",
        "name": "福岡市",
        "city_type": 3
      },
      "region_id": 8,
      "area": 4976.17,
      "flowers": [
        "梅（うめ）"
      ],
      "trees": [
        "つつじ"
      ]
    },
    {
      "id": 41,
      "name": "佐賀県",
      "capital": {
        "zip_code": "840-8570",
        "address": "佐賀市城内1-1-59",
        "name": "佐賀市",
        "city_type": 2
      },
      "region_id": 8,
      "area": 2439.58,
      "flowers": [
        "楠（くす）"
      ],
      "trees": [
        "クス"
      ]
    },
    {
      "id": 42,
      "name": "長崎県",
      "capital": {
        "zip_code": "850-8570",
        "address": "長崎市尾上町3-1",
        "name": "長崎市",
        "city_type": 1
      },
      "region_id": 8,
      "area": 4095.22,
      "flowers": [
        "雲仙ツツジ（うんぜんつつじ）"
      ],
      "trees": [
        "ヒノキ",
        "ツバキ"
      ]
    },
    {
      "id": 43,
      "name": "熊本県",
      "capital": {
        "zip_code": "862-8570",
        "address": "熊本市中央区水前寺6-18-1",
        "name": "熊本市",
        "city_type": 3
      },
      "region_id": 8,
      "area": 7405.21,
      "flowers": [
        "竜胆（りんどう）"
      ],
      "trees": [
        "クスノキ"
      ]
    },
    {
      "id": 44,
      "name": "大分県",
      "capital": {
        "zip_code": "870-8501",
        "address": "大分市大手町3-1-1",
        "name": "大分市",
        "city_type": 1
      },
      "region_id": 8,
      "area": 6339.33,
      "flowers": [
        "豊後梅（ぶんごうめ）"
      ],
      "trees": [
        "ぶんごうめ"
      ]
    },
    {
      "id": 45,
      "name": "宮崎県",
      "capital": {
        "zip_code": "880-8501",
        "address": "宮崎市橘通東2-10-1",
        "name": "宮崎市",
        "city_type": 1
      },
      "region_id": 8,
      "area": 7734.78,
      "flowers": [
        "浜木綿（はまゆう）"
      ],
      "trees": [
        "フェニックス",
        "ヤマザクラ",
        "オビスギ"
      ]
    },
    {
      "id": 46,
      "name": "鹿児島県",
      "capital": {
        "zip_code": "890-8577",
        "address": "鹿児島市鴨池新町10-1",
        "name": "鹿児島市",
        "city_type": 1
      },
      "region_id": 8,
      "area": 9187.8,
      "flowers": [
        "みやまきりしま"
      ],
      "trees": [
        "クスノキ",
        "カイコウズ"
      ]
    },
    {
      "id": 47,
      "name": "沖縄県",
      "capital": {
        "zip_code": "900-8570",
        "address": "那覇市泉崎1-2-2",
        "name": "沖縄市",
        "city_type": 1
      },
      "region_id": 8,
      "area": 2275.28,
      "flowers": [
        "梯梧（でいご）"
      ],
      "trees": [
        "リュウキュウマツ"
      ]
    }
  ]
}